[{"OBJECT_NAME":"COSMOS 2585 (RODNIK-S 19)","OBJECT_ID":"2025-054A","EPOCH":"2026-03-09T21:16:39.260928","MEAN_MOTION":12.42895217,"ECCENTRICITY":0.0023382,"INCLINATION":82.4953,"RA_OF_ASC_NODE":140.4568,"ARG_OF_PERICENTER":249.043,"MEAN_ANOMALY":110.8147,"EPHEMERIS_TYPE":0,"CLASSIFICATION_TYPE":"U","NORAD_CAT_ID":63288,"ELEMENT_SET_NO":999,"REV_AT_EPOCH":4452,"BSTAR":4.7192e-5,"MEAN_MOTION_DOT":1.6e-7,"MEAN_MOTION_DDOT":0},{"OBJECT_NAME":"COSMOS 412","OBJECT_ID":"1971-041B","EPOCH":"2026-03-09T21:38:44.083104","MEAN_MOTION":12.39882913,"ECCENTRICITY":0.00357041,"INCLINATION":74.0127,"RA_OF_ASC_NODE":233.3621,"ARG_OF_PERICENTER":239.7058,"MEAN_ANOMALY":233.6142,"EPHEMERIS_TYPE":0,"CLASSIFICATION_TYPE":"U","NORAD_CAT_ID":5211,"ELEMENT_SET_NO":999,"REV_AT_EPOCH":72125,"BSTAR":0.00012562801,"MEAN_MOTION_DOT":1.0e-8,"MEAN_MOTION_DDOT":0}]
